[{"OBJECT_NAME":"STARLINK-36217","OBJECT_ID":"2025-299U","EPOCH":"2026-03-09T07:17:44.639232","MEAN_MOTION":15.27601297,"ECCENTRICITY":0.00028018,"INCLINATION":42.9979,"RA_OF_ASC_NODE":171.4782,"ARG_OF_PERICENTER":290.6433,"MEAN_ANOMALY":69.4118,"EPHEMERIS_TYPE":0,"CLASSIFICATION_TYPE":"U","NORAD_CAT_ID":67120,"ELEMENT_SET_NO":999,"REV_AT_EPOCH":1305,"BSTAR":0.0010760864,"MEAN_MOTION_DOT":0.00029489,"MEAN_MOTION_DDOT":0},{"OBJECT_NAME":"COSMOS 1953","OBJECT_ID":"1988-050A","EPOCH":"2026-03-09T18:09:26.993952","MEAN_MOTION":15.28528086,"ECCENTRICITY":0.00124769,"INCLINATION":82.5105,"RA_OF_ASC_NODE":158.18,"ARG_OF_PERICENTER":122.2454,"MEAN_ANOMALY":237.9996,"EPHEMERIS_TYPE":0,"CLASSIFICATION_TYPE":"U","NORAD_CAT_ID":19210,"ELEMENT_SET_NO":999,"REV_AT_EPOCH":3779,"BSTAR":0.00029210954,"MEAN_MOTION_DOT":8.158e-5,"MEAN_MOTION_DDOT":0}]
